{"type": "FeatureCollection", "features": [ {"type": "Feature", "properties": {"norad_id": 41007, "name": "FENGYUN 1C DEB", "group": "fengyun-1c-debris", "lat": -63.04907336547906, "lon": -175.87326283316807, "alt_km": 1034.9046736551309, "timestamp": "2025-12-22T22:44:21.266020+00:00", "meta": {"OBJECT_NAME": "FENGYUN 1C DEB", "OBJECT_ID": "1999-025EXM", "EPOCH": "2025-11-29T06:55:22.773792", "MEAN_MOTION": 13.85678237, "ECCENTRICITY": 0.01723955, "INCLINATION": 99.9731, "RA_OF_ASC_NODE": 359.205, "ARG_OF_PERICENTER": 79.2855, "MEAN_ANOMALY": 282.7657, "EPHEMERIS_TYPE": 0, "CLASSIFICATION_TYPE": "U", "NORAD_CAT_ID": 41007, "ELEMENT_SET_NO": 999, "REV_AT_EPOCH": 57212, "BSTAR": 0.0017167305, "MEAN_MOTION_DOT": 2.158e-05, "MEAN_MOTION_DDOT": 0}, "tle": {"line1": "1 41007U 99025EXM 25333.28845803  .00002158  00000+0  17167-2 0  9990", "line2": "2 41007  99.9731 359.2050 0172395  79.2855 282.7657 13.85678237572123"}}, "geometry": {"type": "Point", "coordinates": [-175.87326283316807, -63.04907336547906]}}, {"type": "Feature", "properties": {"norad_id": 41011, "name": "FENGYUN 1C DEB", "group": "fengyun-1c-debris", "lat": -31.624333703279426, "lon": 48.451628674377275, "alt_km": 534.1138716983705, "timestamp": "2025-12-22T22:44:21.266031+00:00", "meta": {"OBJECT_NAME": "FENGYUN 1C DEB", "OBJECT_ID": "1999-025EXR", "EPOCH": "2025-12-22T09:33:57.368160", "MEAN_MOTION": 14.42961336, "ECCENTRICITY": 0.03095053, "INCLINATION": 99.1672, "RA_OF_ASC_NODE": 42.1537, "ARG_OF_PERICENTER": 329.5749, "MEAN_ANOMALY": 28.7789, "EPHEMERIS_TYPE": 0, "CLASSIFICATION_TYPE": "U", "NORAD_CAT_ID": 41011, "ELEMENT_SET_NO": 999, "REV_AT_EPOCH": 57296, "BSTAR": 0.00057983025, "MEAN_MOTION_DOT": 3.405e-05, "MEAN_MOTION_DDOT": 0}, "tle": {"line1": "1 41011U 99025EXR 25356.39858065  .00003405  00000+0  57983-3 0  9993", "line2": "2 41011  99.1672  42.1537 0309505 329.5749  28.7789 14.42961336572965"}}, "geometry": {"type": "Point", "coordinates": [48.451628674377275, -31.624333703279426]}}, {"type": "Feature", "properties": {"norad_id": 41018, "name": "FENGYUN 1C DEB", "group": "fengyun-1c-debris", "lat": -33.144426966357074, "lon": 114.79055655329853, "alt_km": 1178.5508932516586, "timestamp": "2025-12-22T22:44:21.266041+00:00", "meta": {"OBJECT_NAME": "FENGYUN 1C DEB", "OBJECT_ID": "1999-025EXY", "EPOCH": "2025-12-15T01:30:35.121600", "MEAN_MOTION": 13.52371588, "ECCENTRICITY": 0.03049079, "INCLINATION": 99.9356, "RA_OF_ASC_NODE": 293.4577, "ARG_OF_PERICENTER": 112.862, "MEAN_ANOMALY": 250.5013, "EPHEMERIS_TYPE": 0, "CLASSIFICATION_TYPE": "U", "NORAD_CAT_ID": 41018, "ELEMENT_SET_NO": 999, "REV_AT_EPOCH": 88206, "BSTAR": 0.0022149287, "MEAN_MOTION_DOT": 1.917e-05, "MEAN_MOTION_DDOT": 0}, "tle": {"line1": "1 41018U 99025EXY 25349.06290650  .00001917  00000+0  22149-2 0  9997", "line2": "2 41018  99.9356 293.4577 0304907 112.8620 250.5013 13.52371588882060"}}, "geometry": {"type": "Point", "coordinates": [114.79055655329853, -33.144426966357074]}}, {"type": "Feature", "properties": {"norad_id": 41822, "name": "FENGYUN 1C DEB", "group": "fengyun-1c-debris", "lat": 28.577826319893664, "lon": 58.299002499280746, "alt_km": 845.8133181457506, "timestamp": "2025-12-22T22:44:21.266051+00:00", "meta": {"OBJECT_NAME": "FENGYUN 1C DEB", "OBJECT_ID": "1999-025EXZ", "EPOCH": "2025-12-21T02:47:00.274560", "MEAN_MOTION": 14.24852525, "ECCENTRICITY": 0.00558281, "INCLINATION": 98.7319, "RA_OF_ASC_NODE": 61.2799, "ARG_OF_PERICENTER": 196.6801, "MEAN_ANOMALY": 163.2543, "EPHEMERIS_TYPE": 0, "CLASSIFICATION_TYPE": "U", "NORAD_CAT_ID": 41822, "ELEMENT_SET_NO": 999, "REV_AT_EPOCH": 47492, "BSTAR": 0.0010920609, "MEAN_MOTION_DOT": 2.547e-05, "MEAN_MOTION_DDOT": 0}, "tle": {"line1": "1 41822U 99025EXZ 25355.11597540  .00002547  00000+0  10921-2 0  9996", "line2": "2 41822  98.7319  61.2799 0055828 196.6801 163.2543 14.24852525474927"}}, "geometry": {"type": "Point", "coordinates": [58.299002499280746, 28.577826319893664]}}, {"type": "Feature", "properties": {"norad_id": 41823, "name": "FENGYUN 1C DEB", "group": "fengyun-1c-debris", "lat": 51.9734433703221, "lon": 48.8661409733676, "alt_km": 841.2970681822289, "timestamp": "2025-12-22T22:44:21.266062+00:00", "meta": {"OBJECT_NAME": "FENGYUN 1C DEB", "OBJECT_ID": "1999-025EYA", "EPOCH": "2025-12-22T03:56:01.904352", "MEAN_MOTION": 14.23576263, "ECCENTRICITY": 0.00552128, "INCLINATION": 98.7197, "RA_OF_ASC_NODE": 59.4072, "ARG_OF_PERICENTER": 201.2943, "MEAN_ANOMALY": 158.5937, "EPHEMERIS_TYPE": 0, "CLASSIFICATION_TYPE": "U", "NORAD_CAT_ID": 41823, "ELEMENT_SET_NO": 999, "REV_AT_EPOCH": 47492, "BSTAR": 0.0013612277, "MEAN_MOTION_DOT": 3.106e-05, "MEAN_MOTION_DDOT": 0}, "tle": {"line1": "1 41823U 99025EYA 25356.16391093  .00003106  00000+0  13612-2 0  9990", "line2": "2 41823  98.7197  59.4072 0055212 201.2943 158.5937 14.23576263474927"}}, "geometry": {"type": "Point", "coordinates": [48.8661409733676, 51.9734433703221]}}, {"type": "Feature", "properties": {"norad_id": 41824, "name": "FENGYUN 1C DEB", "group": "fengyun-1c-debris", "lat": -56.296294632182565, "lon": 74.22711327066237, "alt_km": 828.2362779961477, "timestamp": "2025-12-22T22:44:21.266072+00:00", "meta": {"OBJECT_NAME": "FENGYUN 1C DEB", "OBJECT_ID": "1999-025EYB", "EPOCH": "2025-12-22T02:46:36.904224", "MEAN_MOTION": 14.24225533, "ECCENTRICITY": 0.00578971, "INCLINATION": 98.7308, "RA_OF_ASC_NODE": 60.0811, "ARG_OF_PERICENTER": 200.7576, "MEAN_ANOMALY": 159.1251, "EPHEMERIS_TYPE": 0, "CLASSIFICATION_TYPE": "U", "NORAD_CAT_ID": 41824, "ELEMENT_SET_NO": 999, "REV_AT_EPOCH": 47493, "BSTAR": 0.0014462054, "MEAN_MOTION_DOT": 3.35e-05, "MEAN_MOTION_DDOT": 0}, "tle": {"line1": "1 41824U 99025EYB 25356.11570491  .00003350  00000+0  14462-2 0  9992", "line2": "2 41824  98.7308  60.0811 0057897 200.7576 159.1251 14.24225533474937"}}, "geometry": {"type": "Point", "coordinates": [74.22711327066237, -56.296294632182565]}}, {"type": "Feature", "properties": {"norad_id": 41825, "name": "FENGYUN 1C DEB", "group": "fengyun-1c-debris", "lat": -19.359977482473116, "lon": -117.15876183504372, "alt_km": 773.015140889469, "timestamp": "2025-12-22T22:44:21.266082+00:00", "meta": {"OBJECT_NAME": "FENGYUN 1C DEB", "OBJECT_ID": "1999-025EYC", "EPOCH": "2025-12-21T03:40:51.708000", "MEAN_MOTION": 14.25146759, "ECCENTRICITY": 0.00562048, "INCLINATION": 98.7414, "RA_OF_ASC_NODE": 64.1533, "ARG_OF_PERICENTER": 196.8248, "MEAN_ANOMALY": 163.1069, "EPHEMERIS_TYPE": 0, "CLASSIFICATION_TYPE": "U", "NORAD_CAT_ID": 41825, "ELEMENT_SET_NO": 999, "REV_AT_EPOCH": 47468, "BSTAR": 0.0010509241, "MEAN_MOTION_DOT": 2.464e-05, "MEAN_MOTION_DDOT": 0}, "tle": {"line1": "1 41825U 99025EYC 25355.15337625  .00002464  00000+0  10509-2 0  9999", "line2": "2 41825  98.7414  64.1533 0056204 196.8248 163.1069 14.25146759474681"}}, "geometry": {"type": "Point", "coordinates": [-117.15876183504372, -19.359977482473116]}}, {"type": "Feature", "properties": {"norad_id": 41826, "name": "FENGYUN 1C DEB", "group": "fengyun-1c-debris", "lat": 57.69840779913329, "lon": -103.25647039581146, "alt_km": 794.9172015059685, "timestamp": "2025-12-22T22:44:21.266092+00:00", "meta": {"OBJECT_NAME": "FENGYUN 1C DEB", "OBJECT_ID": "1999-025EYD", "EPOCH": "2025-12-17T15:40:24.664800", "MEAN_MOTION": 14.23780201, "ECCENTRICITY": 0.00560806, "INCLINATION": 98.7338, "RA_OF_ASC_NODE": 57.4138, "ARG_OF_PERICENTER": 209.4871, "MEAN_ANOMALY": 150.3141, "EPHEMERIS_TYPE": 0, "CLASSIFICATION_TYPE": "U", "NORAD_CAT_ID": 41826, "ELEMENT_SET_NO": 999, "REV_AT_EPOCH": 47430, "BSTAR": 0.0011247822, "MEAN_MOTION_DOT": 2.57e-05, "MEAN_MOTION_DDOT": 0}, "tle": {"line1": "1 41826U 99025EYD 25351.65306325  .00002570  00000+0  11248-2 0  9993", "line2": "2 41826  98.7338  57.4138 0056080 209.4871 150.3141 14.23780201474300"}}, "geometry": {"type": "Point", "coordinates": [-103.25647039581146, 57.69840779913329]}}, {"type": "Feature", "properties": {"norad_id": 41827, "name": "FENGYUN 1C DEB", "group": "fengyun-1c-debris", "lat": 70.54317689161002, "lon": 40.29697506455939, "alt_km": 816.2582456077016, "timestamp": "2025-12-22T22:44:21.266103+00:00", "meta": {"OBJECT_NAME": "FENGYUN 1C DEB", "OBJECT_ID": "1999-025EYE", "EPOCH": "2025-12-22T03:51:52.066656", "MEAN_MOTION": 14.25340345, "ECCENTRICITY": 0.00586649, "INCLINATION": 98.7426, "RA_OF_ASC_NODE": 65.3361, "ARG_OF_PERICENTER": 187.1613, "MEAN_ANOMALY": 172.8735, "EPHEMERIS_TYPE": 0, "CLASSIFICATION_TYPE": "U", "NORAD_CAT_ID": 41827, "ELEMENT_SET_NO": 999, "REV_AT_EPOCH": 47465, "BSTAR": 0.0015345989, "MEAN_MOTION_DOT": 3.638e-05, "MEAN_MOTION_DDOT": 0}, "tle": {"line1": "1 41827U 99025EYE 25356.16101929  .00003638  00000+0  15346-2 0  9997", "line2": "2 41827  98.7426  65.3361 0058664 187.1613 172.8735 14.25340345474650"}}, "geometry": {"type": "Point", "coordinates": [40.29697506455939, 70.54317689161002]}}, {"type": "Feature", "properties": {"norad_id": 41828, "name": "FENGYUN 1C DEB", "group": "fengyun-1c-debris", "lat": -42.78894632207514, "lon": -62.737261963783205, "alt_km": 719.5408270578664, "timestamp": "2025-12-22T22:44:21.266113+00:00", "meta": {"OBJECT_NAME": "FENGYUN 1C DEB", "OBJECT_ID": "1999-025EYF", "EPOCH": "2025-12-20T20:06:02.154816", "MEAN_MOTION": 14.51958925, "ECCENTRICITY": 0.0037831, "INCLINATION": 98.9232, "RA_OF_ASC_NODE": 123.3849, "ARG_OF_PERICENTER": 152.7603, "MEAN_ANOMALY": 207.5585, "EPHEMERIS_TYPE": 0, "CLASSIFICATION_TYPE": "U", "NORAD_CAT_ID": 41828, "ELEMENT_SET_NO": 999, "REV_AT_EPOCH": 47581, "BSTAR": 0.0028532, "MEAN_MOTION_DOT": 0.00011591, "MEAN_MOTION_DDOT": 0}, "tle": {"line1": "1 41828U 99025EYF 25354.83752494  .00011591  00000+0  28532-2 0  9997", "line2": "2 41828  98.9232 123.3849 0037831 152.7603 207.5585 14.51958925475810"}}, "geometry": {"type": "Point", "coordinates": [-62.737261963783205, -42.78894632207514]}}]}